[{"OBJECT_NAME":"ONEWEB-0034","OBJECT_ID":"2020-020AG","EPOCH":"2025-09-08T01:21:07.485696","MEAN_MOTION":13.11416361,"ECCENTRICITY":0.00016667,"INCLINATION":87.8782,"RA_OF_ASC_NODE":77.2625,"ARG_OF_PERICENTER":87.3734,"MEAN_ANOMALY":272.7585,"EPHEMERIS_TYPE":0,"CLASSIFICATION_TYPE":"U","NORAD_CAT_ID":45454,"ELEMENT_SET_NO":999,"REV_AT_EPOCH":26561,"BSTAR":0.0010743085,"MEAN_MOTION_DOT":3.93e-6,"MEAN_MOTION_DDOT":0},{"OBJECT_NAME":"ONEWEB-0060","OBJECT_ID":"2020-020AH","EPOCH":"2025-09-08T06:09:12.302496","MEAN_MOTION":13.11418836,"ECCENTRICITY":0.00018739,"INCLINATION":87.8775,"RA_OF_ASC_NODE":77.2497,"ARG_OF_PERICENTER":47.6273,"MEAN_ANOMALY":312.5013,"EPHEMERIS_TYPE":0,"CLASSIFICATION_TYPE":"U","NORAD_CAT_ID":45455,"ELEMENT_SET_NO":999,"REV_AT_EPOCH":26559,"BSTAR":-0.0014092635,"MEAN_MOTION_DOT":-4.87e-6,"MEAN_MOTION_DDOT":0},{"OBJECT_NAME":"ONEWEB-0086","OBJECT_ID":"2020-020AJ","EPOCH":"2025-09-08T05:38:41.548704","MEAN_MOTION":13.11415681,"ECCENTRICITY":0.00010938,"INCLINATION":87.8779,"RA_OF_ASC_NODE":77.2239,"ARG_OF_PERICENTER":65.5216,"MEAN_ANOMALY":294.6026,"EPHEMERIS_TYPE":0,"CLASSIFICATION_TYPE":"U","NORAD_CAT_ID":45456,"ELEMENT_SET_NO":999,"REV_AT_EPOCH":26565,"BSTAR":-0.0014491195,"MEAN_MOTION_DOT":-5.01e-6,"MEAN_MOTION_DDOT":0},{"OBJECT_NAME":"ONEWEB-0088","OBJECT_ID":"2020-020AK","EPOCH":"2025-09-08T05:06:57.949344","MEAN_MOTION":13.11416143,"ECCENTRICITY":0.00018377,"INCLINATION":87.8786,"RA_OF_ASC_NODE":77.1749,"ARG_OF_PERICENTER":86.7626,"MEAN_ANOMALY":273.3713,"EPHEMERIS_TYPE":0,"CLASSIFICATION_TYPE":"U","NORAD_CAT_ID":45457,"ELEMENT_SET_NO":999,"REV_AT_EPOCH":26558,"BSTAR":0.00071668191,"MEAN_MOTION_DOT":2.67e-6,"MEAN_MOTION_DDOT":0},{"OBJECT_NAME":"ONEWEB-0102","OBJECT_ID":"2020-100A","EPOCH":"2025-09-08T03:12:15.398784","MEAN_MOTION":13.12442743,"ECCENTRICITY":0.00016262,"INCLINATION":87.8893,"RA_OF_ASC_NODE":46.7266,"ARG_OF_PERICENTER":98.8561,"MEAN_ANOMALY":261.2752,"EPHEMERIS_TYPE":0,"CLASSIFICATION_TYPE":"U","NORAD_CAT_ID":47258,"ELEMENT_SET_NO":999,"REV_AT_EPOCH":22773,"BSTAR":0.00030715101,"MEAN_MOTION_DOT":1.23e-6,"MEAN_MOTION_DDOT":0},{"OBJECT_NAME":"ONEWEB-0109","OBJECT_ID":"2020-100B","EPOCH":"2025-09-08T03:23:55.601664","MEAN_MOTION":13.12443675,"ECCENTRICITY":0.00016155,"INCLINATION":87.8892,"RA_OF_ASC_NODE":46.6934,"ARG_OF_PERICENTER":97.5457,"MEAN_ANOMALY":262.5855,"EPHEMERIS_TYPE":0,"CLASSIFICATION_TYPE":"U","NORAD_CAT_ID":47259,"ELEMENT_SET_NO":999,"REV_AT_EPOCH":22756,"BSTAR":-0.00056489321,"MEAN_MOTION_DOT":-1.9e-6,"MEAN_MOTION_DDOT":0},{"OBJECT_NAME":"ONEWEB-0110","OBJECT_ID":"2020-100C","EPOCH":"2025-09-07T22:31:56.877600","MEAN_MOTION":13.12444073,"ECCENTRICITY":0.00014868,"INCLINATION":87.8891,"RA_OF_ASC_NODE":46.718,"ARG_OF_PERICENTER":86.6357,"MEAN_ANOMALY":273.4942,"EPHEMERIS_TYPE":0,"CLASSIFICATION_TYPE":"U","NORAD_CAT_ID":47260,"ELEMENT_SET_NO":999,"REV_AT_EPOCH":22770,"BSTAR":-0.00036998301,"MEAN_MOTION_DOT":-1.2e-6,"MEAN_MOTION_DDOT":0},{"OBJECT_NAME":"ONEWEB-0111","OBJECT_ID":"2020-100D","EPOCH":"2025-09-08T02:55:54.814080","MEAN_MOTION":13.12442437,"ECCENTRICITY":0.00016795,"INCLINATION":87.8891,"RA_OF_ASC_NODE":46.6986,"ARG_OF_PERICENTER":94.8372,"MEAN_ANOMALY":265.2948,"EPHEMERIS_TYPE":0,"CLASSIFICATION_TYPE":"U","NORAD_CAT_ID":47261,"ELEMENT_SET_NO":999,"REV_AT_EPOCH":22756,"BSTAR":0.0012709324,"MEAN_MOTION_DOT":4.7e-6,"MEAN_MOTION_DDOT":0},{"OBJECT_NAME":"ONEWEB-0114","OBJECT_ID":"2020-100E","EPOCH":"2025-09-08T03:40:16.486176","MEAN_MOTION":13.12442966,"ECCENTRICITY":0.00017295,"INCLINATION":87.8894,"RA_OF_ASC_NODE":46.6862,"ARG_OF_PERICENTER":105.3084,"MEAN_ANOMALY":254.8236,"EPHEMERIS_TYPE":0,"CLASSIFICATION_TYPE":"U","NORAD_CAT_ID":47262,"ELEMENT_SET_NO":999,"REV_AT_EPOCH":22752,"BSTAR":-0.0011773661,"MEAN_MOTION_DOT":-4.11e-6,"MEAN_MOTION_DDOT":0},{"OBJECT_NAME":"ONEWEB-0117","OBJECT_ID":"2020-100F","EPOCH":"2025-09-08T03:28:35.806368","MEAN_MOTION":13.12443002,"ECCENTRICITY":0.00016878,"INCLINATION":87.8893,"RA_OF_ASC_NODE":46.6859,"ARG_OF_PERICENTER":92.7449,"MEAN_ANOMALY":267.3873,"EPHEMERIS_TYPE":0,"CLASSIFICATION_TYPE":"U","NORAD_CAT_ID":47263,"ELEMENT_SET_NO":999,"REV_AT_EPOCH":22753,"BSTAR":-0.00078856314,"MEAN_MOTION_DOT":-2.71e-6,"MEAN_MOTION_DDOT":0},{"OBJECT_NAME":"ONEWEB-0118","OBJECT_ID":"2020-100G","EPOCH":"2025-09-08T04:15:19.800864","MEAN_MOTION":13.12443392,"ECCENTRICITY":0.00019625,"INCLINATION":87.8893,"RA_OF_ASC_NODE":46.6788,"ARG_OF_PERICENTER":101.6971,"MEAN_ANOMALY":258.4378,"EPHEMERIS_TYPE":0,"CLASSIFICATION_TYPE":"U","NORAD_CAT_ID":47264,"ELEMENT_SET_NO":999,"REV_AT_EPOCH":22773,"BSTAR":0.00024956798,"MEAN_MOTION_DOT":1.03e-6,"MEAN_MOTION_DDOT":0},{"OBJECT_NAME":"ONEWEB-0119","OBJECT_ID":"2020-100H","EPOCH":"2025-09-08T03:05:14.892576","MEAN_MOTION":13.12443117,"ECCENTRICITY":0.00016412,"INCLINATION":87.8888,"RA_OF_ASC_NODE":46.7261,"ARG_OF_PERICENTER":94.0792,"MEAN_ANOMALY":266.0524,"EPHEMERIS_TYPE":0,"CLASSIFICATION_TYPE":"U","NORAD_CAT_ID":47265,"ELEMENT_SET_NO":999,"REV_AT_EPOCH":22770,"BSTAR":0.00075200539,"MEAN_MOTION_DOT":2.83e-6,"MEAN_MOTION_DDOT":0},{"OBJECT_NAME":"ONEWEB-0120","OBJECT_ID":"2020-100J","EPOCH":"2025-09-08T03:38:08.170080","MEAN_MOTION":13.12443037,"ECCENTRICITY":0.00016854,"INCLINATION":87.8894,"RA_OF_ASC_NODE":46.7225,"ARG_OF_PERICENTER":98.6552,"MEAN_ANOMALY":261.4767,"EPHEMERIS_TYPE":0,"CLASSIFICATION_TYPE":"U","NORAD_CAT_ID":47266,"ELEMENT_SET_NO":999,"REV_AT_EPOCH":22773,"BSTAR":-0.001119284,"MEAN_MOTION_DOT":-3.9e-6,"MEAN_MOTION_DDOT":0},{"OBJECT_NAME":"ONEWEB-0121","OBJECT_ID":"2020-100K","EPOCH":"2025-09-08T03:21:35.784000","MEAN_MOTION":13.12442521,"ECCENTRICITY":0.00016113,"INCLINATION":87.8891,"RA_OF_ASC_NODE":46.6915,"ARG_OF_PERICENTER":91.2187,"MEAN_ANOMALY":268.9126,"EPHEMERIS_TYPE":0,"CLASSIFICATION_TYPE":"U","NORAD_CAT_ID":47267,"ELEMENT_SET_NO":999,"REV_AT_EPOCH":22764,"BSTAR":-0.0003386205,"MEAN_MOTION_DOT":-1.09e-6,"MEAN_MOTION_DDOT":0},{"OBJECT_NAME":"ONEWEB-0122","OBJECT_ID":"2020-100L","EPOCH":"2025-09-07T23:34:49.754784","MEAN_MOTION":13.12442025,"ECCENTRICITY":0.00015201,"INCLINATION":87.889,"RA_OF_ASC_NODE":46.7258,"ARG_OF_PERICENTER":95.2172,"MEAN_ANOMALY":264.913,"EPHEMERIS_TYPE":0,"CLASSIFICATION_TYPE":"U","NORAD_CAT_ID":47268,"ELEMENT_SET_NO":999,"REV_AT_EPOCH":22753,"BSTAR":-0.00011612703,"MEAN_MOTION_DOT":-2.9e-7,"MEAN_MOTION_DDOT":0},{"OBJECT_NAME":"ONEWEB-0123","OBJECT_ID":"2020-100M","EPOCH":"2025-09-08T03:07:35.112000","MEAN_MOTION":13.12441541,"ECCENTRICITY":0.00017936,"INCLINATION":87.8887,"RA_OF_ASC_NODE":46.7243,"ARG_OF_PERICENTER":94.9107,"MEAN_ANOMALY":265.2227,"EPHEMERIS_TYPE":0,"CLASSIFICATION_TYPE":"U","NORAD_CAT_ID":47269,"ELEMENT_SET_NO":999,"REV_AT_EPOCH":22769,"BSTAR":0.00064447617,"MEAN_MOTION_DOT":2.45e-6,"MEAN_MOTION_DDOT":0}]
