ONEWEB-0034             
1 45454U 20020AG  25251.05633664  .00000393  00000+0  10743-2 0  9995
2 45454  87.8782  77.2625 0001666  87.3734 272.7585 13.11416361265617
ONEWEB-0060             
1 45455U 20020AH  25251.25639239 -.00000487  00000+0 -14093-2 0  9990
2 45455  87.8775  77.2497 0001873  47.6273 312.5013 13.11418836265599
ONEWEB-0086             
1 45456U 20020AJ  25251.23520311 -.00000501  00000+0 -14491-2 0  9998
2 45456  87.8779  77.2239 0001093  65.5216 294.6026 13.11415681265654
ONEWEB-0088             
1 45457U 20020AK  25251.21317071  .00000267  00000+0  71668-3 0  9991
2 45457  87.8786  77.1749 0001837  86.7626 273.3713 13.11416143265587
ONEWEB-0102             
1 47258U 20100A   25251.13351156  .00000123  00000+0  30715-3 0  9993
2 47258  87.8893  46.7266 0001626  98.8561 261.2752 13.12442743227731
ONEWEB-0109             
1 47259U 20100B   25251.14161576 -.00000190  00000+0 -56489-3 0  9992
2 47259  87.8892  46.6934 0001615  97.5457 262.5855 13.12443675227564
ONEWEB-0110             
1 47260U 20100C   25250.93885275 -.00000120  00000+0 -36998-3 0  9995
2 47260  87.8891  46.7180 0001486  86.6357 273.4942 13.12444073227700
ONEWEB-0111             
1 47261U 20100D   25251.12216220  .00000470  00000+0  12709-2 0  9995
2 47261  87.8891  46.6986 0001679  94.8372 265.2948 13.12442437227567
ONEWEB-0114             
1 47262U 20100E   25251.15296859 -.00000411  00000+0 -11774-2 0  9993
2 47262  87.8894  46.6862 0001729 105.3084 254.8236 13.12442966227525
ONEWEB-0117             
1 47263U 20100F   25251.14485887 -.00000271  00000+0 -78856-3 0  9993
2 47263  87.8893  46.6859 0001687  92.7449 267.3873 13.12443002227537
ONEWEB-0118             
1 47264U 20100G   25251.17731251  .00000103  00000+0  24957-3 0  9991
2 47264  87.8893  46.6788 0001962 101.6971 258.4378 13.12443392227730
ONEWEB-0119             
1 47265U 20100H   25251.12864459  .00000283  00000+0  75201-3 0  9991
2 47265  87.8888  46.7261 0001641  94.0792 266.0524 13.12443117227702
ONEWEB-0120             
1 47266U 20100J   25251.15148345 -.00000390  00000+0 -11193-2 0  9994
2 47266  87.8894  46.7225 0001685  98.6552 261.4767 13.12443037227734
ONEWEB-0121             
1 47267U 20100K   25251.13999750 -.00000109  00000+0 -33862-3 0  9993
2 47267  87.8891  46.6915 0001611  91.2187 268.9126 13.12442521227647
ONEWEB-0122             
1 47268U 20100L   25250.98252031 -.00000029  00000+0 -11613-3 0  9991
2 47268  87.8890  46.7258 0001520  95.2172 264.9130 13.12442025227533
ONEWEB-0123             
1 47269U 20100M   25251.13026750  .00000245  00000+0  64448-3 0  9999
2 47269  87.8887  46.7243 0001793  94.9107 265.2227 13.12441541227690
